[{"OBJECT_NAME":"STARLINK-1502","OBJECT_ID":"2020-038AL","EPOCH":"2026-03-09T16:28:40.129248","MEAN_MOTION":15.47123466,"ECCENTRICITY":0.00027286,"INCLINATION":53.0523,"RA_OF_ASC_NODE":206.0601,"ARG_OF_PERICENTER":10.3487,"MEAN_ANOMALY":349.7575,"EPHEMERIS_TYPE":0,"CLASSIFICATION_TYPE":"U","NORAD_CAT_ID":45764,"ELEMENT_SET_NO":999,"REV_AT_EPOCH":31663,"BSTAR":0.0018007606,"MEAN_MOTION_DOT":0.00093492,"MEAN_MOTION_DDOT":0},{"OBJECT_NAME":"GHGSAT-C7","OBJECT_ID":"2023-054AH","EPOCH":"2026-03-09T23:00:36.628128","MEAN_MOTION":15.47649027,"ECCENTRICITY":0.00094471,"INCLINATION":97.3074,"RA_OF_ASC_NODE":336.1963,"ARG_OF_PERICENTER":47.2548,"MEAN_ANOMALY":312.9496,"EPHEMERIS_TYPE":0,"CLASSIFICATION_TYPE":"U","NORAD_CAT_ID":56209,"ELEMENT_SET_NO":999,"REV_AT_EPOCH":16303,"BSTAR":0.00028683651,"MEAN_MOTION_DOT":0.00014749,"MEAN_MOTION_DDOT":0}]
